[{"OBJECT_NAME":"TDRS 13","OBJECT_ID":"2017-047A","EPOCH":"2026-04-01T07:43:16.080960","MEAN_MOTION":1.00272151,"ECCENTRICITY":0.0011722,"INCLINATION":3.4352,"RA_OF_ASC_NODE":0.7889,"ARG_OF_PERICENTER":97.1873,"MEAN_ANOMALY":196.0406,"EPHEMERIS_TYPE":0,"CLASSIFICATION_TYPE":"U","NORAD_CAT_ID":42915,"ELEMENT_SET_NO":999,"REV_AT_EPOCH":3157,"BSTAR":0,"MEAN_MOTION_DOT":-1.08e-6,"MEAN_MOTION_DDOT":0},{"OBJECT_NAME":"QZS-3 (MICHIBIKI-3)","OBJECT_ID":"2017-048A","EPOCH":"2026-04-01T12:02:38.786784","MEAN_MOTION":1.00272842,"ECCENTRICITY":0.0002088,"INCLINATION":0.0586,"RA_OF_ASC_NODE":152.3592,"ARG_OF_PERICENTER":217.5437,"MEAN_ANOMALY":127.6507,"EPHEMERIS_TYPE":0,"CLASSIFICATION_TYPE":"U","NORAD_CAT_ID":42917,"ELEMENT_SET_NO":999,"REV_AT_EPOCH":3149,"BSTAR":0,"MEAN_MOTION_DOT":-3.57e-6,"MEAN_MOTION_DDOT":0},{"OBJECT_NAME":"AMAZONAS 5","OBJECT_ID":"2017-053A","EPOCH":"2026-03-31T12:39:17.610624","MEAN_MOTION":1.00270462,"ECCENTRICITY":0.0004891,"INCLINATION":0.0457,"RA_OF_ASC_NODE":328.7885,"ARG_OF_PERICENTER":16.5997,"MEAN_ANOMALY":332.3221,"EPHEMERIS_TYPE":0,"CLASSIFICATION_TYPE":"U","NORAD_CAT_ID":42934,"ELEMENT_SET_NO":999,"REV_AT_EPOCH":3126,"BSTAR":0,"MEAN_MOTION_DOT":-2.96e-6,"MEAN_MOTION_DDOT":0},{"OBJECT_NAME":"ASIASAT 9","OBJECT_ID":"2017-057A","EPOCH":"2026-03-31T23:47:59.188128","MEAN_MOTION":1.00270836,"ECCENTRICITY":0.0002245,"INCLINATION":0.0119,"RA_OF_ASC_NODE":215.6981,"ARG_OF_PERICENTER":153.885,"MEAN_ANOMALY":298.8717,"EPHEMERIS_TYPE":0,"CLASSIFICATION_TYPE":"U","NORAD_CAT_ID":42942,"ELEMENT_SET_NO":999,"REV_AT_EPOCH":3108,"BSTAR":0,"MEAN_MOTION_DOT":-3.71e-6,"MEAN_MOTION_DDOT":0},{"OBJECT_NAME":"INTELSAT 37E (IS-37E)","OBJECT_ID":"2017-059A","EPOCH":"2026-04-01T09:24:06.410304","MEAN_MOTION":1.00268757,"ECCENTRICITY":0.0002084,"INCLINATION":0.0244,"RA_OF_ASC_NODE":207.285,"ARG_OF_PERICENTER":182.3758,"MEAN_ANOMALY":283.1082,"EPHEMERIS_TYPE":0,"CLASSIFICATION_TYPE":"U","NORAD_CAT_ID":42950,"ELEMENT_SET_NO":999,"REV_AT_EPOCH":3129,"BSTAR":0,"MEAN_MOTION_DOT":0,"MEAN_MOTION_DDOT":0},{"OBJECT_NAME":"BSAT-4A","OBJECT_ID":"2017-059B","EPOCH":"2026-04-01T11:43:15.562848","MEAN_MOTION":1.00272345,"ECCENTRICITY":0.0004477,"INCLINATION":0.0742,"RA_OF_ASC_NODE":48.478,"ARG_OF_PERICENTER":345.6833,"MEAN_ANOMALY":81.3344,"EPHEMERIS_TYPE":0,"CLASSIFICATION_TYPE":"U","NORAD_CAT_ID":42951,"ELEMENT_SET_NO":999,"REV_AT_EPOCH":3103,"BSTAR":0,"MEAN_MOTION_DOT":-3.6e-6,"MEAN_MOTION_DDOT":0},{"OBJECT_NAME":"QZS-4 (MICHIBIKI-4)","OBJECT_ID":"2017-062A","EPOCH":"2026-03-31T13:50:38.733216","MEAN_MOTION":1.00273381,"ECCENTRICITY":0.0747501,"INCLINATION":40.1551,"RA_OF_ASC_NODE":344.4747,"ARG_OF_PERICENTER":270.4238,"MEAN_ANOMALY":282.3024,"EPHEMERIS_TYPE":0,"CLASSIFICATION_TYPE":"U","NORAD_CAT_ID":42965,"ELEMENT_SET_NO":999,"REV_AT_EPOCH":3102,"BSTAR":0,"MEAN_MOTION_DOT":-3.42e-6,"MEAN_MOTION_DDOT":0},{"OBJECT_NAME":"SES-11 (ECHOSTAR 105)","OBJECT_ID":"2017-063A","EPOCH":"2026-04-01T10:34:59.969568","MEAN_MOTION":1.002721,"ECCENTRICITY":0.000269,"INCLINATION":0.0473,"RA_OF_ASC_NODE":39.4943,"ARG_OF_PERICENTER":344.733,"MEAN_ANOMALY":219.3672,"EPHEMERIS_TYPE":0,"CLASSIFICATION_TYPE":"U","NORAD_CAT_ID":42967,"ELEMENT_SET_NO":999,"REV_AT_EPOCH":3095,"BSTAR":0,"MEAN_MOTION_DOT":-9.9e-7,"MEAN_MOTION_DDOT":0},{"OBJECT_NAME":"KOREASAT 5A","OBJECT_ID":"2017-067A","EPOCH":"2026-04-01T11:44:07.980000","MEAN_MOTION":1.00268295,"ECCENTRICITY":0.0002207,"INCLINATION":0.0172,"RA_OF_ASC_NODE":210.6737,"ARG_OF_PERICENTER":191.6639,"MEAN_ANOMALY":76.7089,"EPHEMERIS_TYPE":0,"CLASSIFICATION_TYPE":"U","NORAD_CAT_ID":42984,"ELEMENT_SET_NO":999,"REV_AT_EPOCH":3076,"BSTAR":0,"MEAN_MOTION_DOT":0,"MEAN_MOTION_DDOT":0},{"OBJECT_NAME":"ALCOMSAT 1","OBJECT_ID":"2017-078A","EPOCH":"2026-04-01T10:47:38.652288","MEAN_MOTION":1.00271315,"ECCENTRICITY":0.0002591,"INCLINATION":0.0212,"RA_OF_ASC_NODE":117.8461,"ARG_OF_PERICENTER":234.778,"MEAN_ANOMALY":334.2944,"EPHEMERIS_TYPE":0,"CLASSIFICATION_TYPE":"U","NORAD_CAT_ID":43039,"ELEMENT_SET_NO":999,"REV_AT_EPOCH":3052,"BSTAR":0,"MEAN_MOTION_DOT":-1.96e-6,"MEAN_MOTION_DDOT":0},{"OBJECT_NAME":"SBIRS GEO-3 (USA 282)","OBJECT_ID":"2018-009A","EPOCH":"2026-04-01T12:35:38.865696","MEAN_MOTION":1.00272685,"ECCENTRICITY":0.0002337,"INCLINATION":2.1373,"RA_OF_ASC_NODE":8.3663,"ARG_OF_PERICENTER":358.9833,"MEAN_ANOMALY":212.0319,"EPHEMERIS_TYPE":0,"CLASSIFICATION_TYPE":"U","NORAD_CAT_ID":43162,"ELEMENT_SET_NO":999,"REV_AT_EPOCH":3007,"BSTAR":0,"MEAN_MOTION_DOT":1.2e-6,"MEAN_MOTION_DDOT":0},{"OBJECT_NAME":"AL YAH 3","OBJECT_ID":"2018-012A","EPOCH":"2026-04-01T09:23:28.969728","MEAN_MOTION":1.00272089,"ECCENTRICITY":0.0004367,"INCLINATION":1.3541,"RA_OF_ASC_NODE":84.0136,"ARG_OF_PERICENTER":294.1473,"MEAN_ANOMALY":292.3616,"EPHEMERIS_TYPE":0,"CLASSIFICATION_TYPE":"U","NORAD_CAT_ID":43174,"ELEMENT_SET_NO":999,"REV_AT_EPOCH":3007,"BSTAR":0,"MEAN_MOTION_DOT":-1.64e-6,"MEAN_MOTION_DDOT":0},{"OBJECT_NAME":"SES-14","OBJECT_ID":"2018-012B","EPOCH":"2026-04-01T10:58:19.874208","MEAN_MOTION":1.00268167,"ECCENTRICITY":8.17e-5,"INCLINATION":0.0399,"RA_OF_ASC_NODE":43.2516,"ARG_OF_PERICENTER":317.049,"MEAN_ANOMALY":306.5864,"EPHEMERIS_TYPE":0,"CLASSIFICATION_TYPE":"U","NORAD_CAT_ID":43175,"ELEMENT_SET_NO":999,"REV_AT_EPOCH":625,"BSTAR":0,"MEAN_MOTION_DOT":-2.88e-6,"MEAN_MOTION_DDOT":0},{"OBJECT_NAME":"GOES 17","OBJECT_ID":"2018-022A","EPOCH":"2026-04-01T10:46:21.021888","MEAN_MOTION":1.00272001,"ECCENTRICITY":0.0001316,"INCLINATION":0.7413,"RA_OF_ASC_NODE":86.8648,"ARG_OF_PERICENTER":247.1617,"MEAN_ANOMALY":287.8673,"EPHEMERIS_TYPE":0,"CLASSIFICATION_TYPE":"U","NORAD_CAT_ID":43226,"ELEMENT_SET_NO":999,"REV_AT_EPOCH":2965,"BSTAR":0,"MEAN_MOTION_DOT":-1.91e-6,"MEAN_MOTION_DDOT":0},{"OBJECT_NAME":"HISPASAT 30W-6","OBJECT_ID":"2018-023A","EPOCH":"2026-04-01T09:20:36.746016","MEAN_MOTION":1.00269438,"ECCENTRICITY":0.0006054,"INCLINATION":0.0214,"RA_OF_ASC_NODE":71.1066,"ARG_OF_PERICENTER":313.2717,"MEAN_ANOMALY":275.5227,"EPHEMERIS_TYPE":0,"CLASSIFICATION_TYPE":"U","NORAD_CAT_ID":43228,"ELEMENT_SET_NO":999,"REV_AT_EPOCH":2963,"BSTAR":0,"MEAN_MOTION_DOT":0,"MEAN_MOTION_DDOT":0},{"OBJECT_NAME":"SUPERBIRD-B3","OBJECT_ID":"2018-033A","EPOCH":"2026-04-01T10:04:41.631456","MEAN_MOTION":1.00268942,"ECCENTRICITY":0.0001442,"INCLINATION":0.0233,"RA_OF_ASC_NODE":214.9268,"ARG_OF_PERICENTER":196.919,"MEAN_ANOMALY":91.0954,"EPHEMERIS_TYPE":0,"CLASSIFICATION_TYPE":"U","NORAD_CAT_ID":43271,"ELEMENT_SET_NO":999,"REV_AT_EPOCH":2929,"BSTAR":0,"MEAN_MOTION_DOT":0,"MEAN_MOTION_DDOT":0},{"OBJECT_NAME":"HYLAS 4","OBJECT_ID":"2018-033B","EPOCH":"2026-04-01T11:02:19.490784","MEAN_MOTION":1.00271186,"ECCENTRICITY":0.0001682,"INCLINATION":0.0333,"RA_OF_ASC_NODE":97.3834,"ARG_OF_PERICENTER":304.5498,"MEAN_ANOMALY":279.865,"EPHEMERIS_TYPE":0,"CLASSIFICATION_TYPE":"U","NORAD_CAT_ID":43272,"ELEMENT_SET_NO":999,"REV_AT_EPOCH":2929,"BSTAR":0,"MEAN_MOTION_DOT":-2.43e-6,"MEAN_MOTION_DDOT":0}]
