TDRS 13                 
1 42915U 17047A   26091.32171390 -.00000108  00000+0  00000+0 0  9992
2 42915   3.4352   0.7889 0011722  97.1873 196.0406  1.00272151 31571
QZS-3 (MICHIBIKI-3)     
1 42917U 17048A   26091.50183781 -.00000357  00000+0  00000+0 0  9998
2 42917   0.0586 152.3592 0002088 217.5437 127.6507  1.00272842 31499
AMAZONAS 5              
1 42934U 17053A   26090.52728716 -.00000296  00000+0  00000+0 0  9999
2 42934   0.0457 328.7885 0004891  16.5997 332.3221  1.00270462 31260
ASIASAT 9               
1 42942U 17057A   26090.99165727 -.00000371  00000+0  00000+0 0  9994
2 42942   0.0119 215.6981 0002245 153.8850 298.8717  1.00270836 31080
INTELSAT 37E (IS-37E)   
1 42950U 17059A   26091.39174086  .00000000  00000+0  00000+0 0  9996
2 42950   0.0244 207.2850 0002084 182.3758 283.1082  1.00268757 31299
BSAT-4A                 
1 42951U 17059B   26091.48837457 -.00000360  00000+0  00000+0 0  9995
2 42951   0.0742  48.4780 0004477 345.6833  81.3344  1.00272345 31035
QZS-4 (MICHIBIKI-4)     
1 42965U 17062A   26090.57683719 -.00000342  00000+0  00000+0 0  9993
2 42965  40.1551 344.4747 0747501 270.4238 282.3024  1.00273381 31029
SES-11 (ECHOSTAR 105)   
1 42967U 17063A   26091.44097187 -.00000099  00000+0  00000+0 0  9990
2 42967   0.0473  39.4943 0002690 344.7330 219.3672  1.00272100 30957
KOREASAT 5A             
1 42984U 17067A   26091.48898125  .00000000  00000+0  00000+0 0  9999
2 42984   0.0172 210.6737 0002207 191.6639  76.7089  1.00268295 30767
ALCOMSAT 1              
1 43039U 17078A   26091.44975292 -.00000196  00000+0  00000+0 0  9997
2 43039   0.0212 117.8461 0002591 234.7780 334.2944  1.00271315 30521
SBIRS GEO-3 (USA 282)   
1 43162U 18009A   26091.52475539  .00000120  00000+0  00000+0 0  9993
2 43162   2.1373   8.3663 0002337 358.9833 212.0319  1.00272685 30073
AL YAH 3                
1 43174U 18012A   26091.39130752 -.00000164  00000+0  00000+0 0  9999
2 43174   1.3541  84.0136 0004367 294.1473 292.3616  1.00272089 30075
SES-14                  
1 43175U 18012B   26091.45717447 -.00000288  00000+0  00000+0 0  9996
2 43175   0.0399  43.2516 0000817 317.0490 306.5864  1.00268167  6250
GOES 17                 
1 43226U 18022A   26091.44885442 -.00000191  00000+0  00000+0 0  9997
2 43226   0.7413  86.8648 0001316 247.1617 287.8673  1.00272001 29659
HISPASAT 30W-6          
1 43228U 18023A   26091.38931419  .00000000  00000+0  00000+0 0  9997
2 43228   0.0214  71.1066 0006054 313.2717 275.5227  1.00269438 29631
SUPERBIRD-B3            
1 43271U 18033A   26091.41992629  .00000000  00000+0  00000+0 0  9990
2 43271   0.0233 214.9268 0001442 196.9190  91.0954  1.00268942 29297
HYLAS 4                 
1 43272U 18033B   26091.45994781 -.00000243  00000+0  00000+0 0  9996
2 43272   0.0333  97.3834 0001682 304.5498 279.8650  1.00271186 29298
